{"type": "FeatureCollection", "features": [{"type": "Feature", "properties": {"norad_id": 22490, "name": "SCD 1", "group": "resource", "lat": 24.044214805313352, "lon": -89.33778280512034, "alt_km": 707.0329283603105, "timestamp": "2025-12-25T22:42:16.652752+00:00", "meta": {"OBJECT_NAME": "SCD 1", "OBJECT_ID": "1993-009B", "EPOCH": "2025-12-25T16:00:22.325184", "MEAN_MOTION": 14.46007346, "ECCENTRICITY": 0.0042177, "INCLINATION": 24.9675, "RA_OF_ASC_NODE": 198.8837, "ARG_OF_PERICENTER": 101.5468, "MEAN_ANOMALY": 317.8225, "EPHEMERIS_TYPE": 0, "CLASSIFICATION_TYPE": "U", "NORAD_CAT_ID": 22490, "ELEMENT_SET_NO": 999, "REV_AT_EPOCH": 73597, "BSTAR": 8.5981e-05, "MEAN_MOTION_DOT": 5e-06, "MEAN_MOTION_DDOT": 0}, "tle": {"line1": "1 22490U 93009B   25359.66692506  .00000500  00000+0  85981-4 0  9991", "line2": "2 22490  24.9675 198.8837 0042177 101.5468 317.8225 14.46007346735976"}}, "geometry": {"type": "Point", "coordinates": [-89.33778280512034, 24.044214805313352]}}, {"type": "Feature", "properties": {"norad_id": 25397, "name": "TECHSAT 1B (GO-32)", "group": "resource", "lat": 9.921204014771003, "lon": 165.05091010581134, "alt_km": 812.9404376656212, "timestamp": "2025-12-25T22:42:16.652777+00:00", "meta": {"OBJECT_NAME": "TECHSAT 1B (GO-32)", "OBJECT_ID": "1998-043D", "EPOCH": "2025-12-25T13:28:49.741248", "MEAN_MOTION": 14.24380509, "ECCENTRICITY": 0.0001644, "INCLINATION": 98.9933, "RA_OF_ASC_NODE": 343.0704, "ARG_OF_PERICENTER": 36.1283, "MEAN_ANOMALY": 324.0006, "EPHEMERIS_TYPE": 0, "CLASSIFICATION_TYPE": "U", "NORAD_CAT_ID": 25397, "ELEMENT_SET_NO": 999, "REV_AT_EPOCH": 42661, "BSTAR": 5.8121e-05, "MEAN_MOTION_DOT": 8.8e-07, "MEAN_MOTION_DDOT": 0}, "tle": {"line1": "1 25397U 98043D   25359.56168682  .00000088  00000+0  58121-4 0  9992", "line2": "2 25397  98.9933 343.0704 0001644  36.1283 324.0006 14.24380509426618"}}, "geometry": {"type": "Point", "coordinates": [165.05091010581134, 9.921204014771003]}}, {"type": "Feature", "properties": {"norad_id": 25504, "name": "SCD 2", "group": "resource", "lat": 24.544138282714062, "lon": 139.02779898196673, "alt_km": 723.1515626496657, "timestamp": "2025-12-25T22:42:16.652793+00:00", "meta": {"OBJECT_NAME": "SCD 2", "OBJECT_ID": "1998-060A", "EPOCH": "2025-12-25T12:59:50.528256", "MEAN_MOTION": 14.45430101, "ECCENTRICITY": 0.0017068, "INCLINATION": 24.9956, "RA_OF_ASC_NODE": 62.9589, "ARG_OF_PERICENTER": 88.2247, "MEAN_ANOMALY": 42.4879, "EPHEMERIS_TYPE": 0, "CLASSIFICATION_TYPE": "U", "NORAD_CAT_ID": 25504, "ELEMENT_SET_NO": 999, "REV_AT_EPOCH": 43517, "BSTAR": 7.5618e-05, "MEAN_MOTION_DOT": 4.53e-06, "MEAN_MOTION_DDOT": 0}, "tle": {"line1": "1 25504U 98060A   25359.54155704  .00000453  00000+0  75618-4 0  9996", "line2": "2 25504  24.9956  62.9589 0017068  88.2247  42.4879 14.45430101435172"}}, "geometry": {"type": "Point", "coordinates": [139.02779898196673, 24.544138282714062]}}, {"type": "Feature", "properties": {"norad_id": 25757, "name": "DLR-TUBSAT", "group": "resource", "lat": -79.24975184451317, "lon": 38.2283216942975, "alt_km": 730.8928177219514, "timestamp": "2025-12-25T22:42:16.652805+00:00", "meta": {"OBJECT_NAME": "DLR-TUBSAT", "OBJECT_ID": "1999-029B", "EPOCH": "2025-12-17T13:22:10.787520", "MEAN_MOTION": 14.52359578, "ECCENTRICITY": 0.00141996, "INCLINATION": 98.6566, "RA_OF_ASC_NODE": 336.2196, "ARG_OF_PERICENTER": 177.8976, "MEAN_ANOMALY": 182.2281, "EPHEMERIS_TYPE": 0, "CLASSIFICATION_TYPE": "U", "NORAD_CAT_ID": 25757, "ELEMENT_SET_NO": 999, "REV_AT_EPOCH": 40688, "BSTAR": 3.7650132e-05, "MEAN_MOTION_DOT": 1.05e-06, "MEAN_MOTION_DDOT": 0}, "tle": {"line1": "1 25757U 99029B   25351.55706930  .00000105  00000+0  37650-4 0  9996", "line2": "2 25757  98.6566 336.2196 0014199 177.8976 182.2281 14.52359578406886"}}, "geometry": {"type": "Point", "coordinates": [38.2283216942975, -79.24975184451317]}}, {"type": "Feature", "properties": {"norad_id": 25994, "name": "TERRA", "group": "resource", "lat": 24.20574015562948, "lon": 47.53232299513964, "alt_km": 687.869357308984, "timestamp": "2025-12-25T22:42:16.652817+00:00", "meta": {"OBJECT_NAME": "TERRA", "OBJECT_ID": "1999-068A", "EPOCH": "2025-12-25T18:09:48.095424", "MEAN_MOTION": 14.60916058, "ECCENTRICITY": 0.0003409, "INCLINATION": 97.9731, "RA_OF_ASC_NODE": 50.9624, "ARG_OF_PERICENTER": 68.5848, "MEAN_ANOMALY": 41.4376, "EPHEMERIS_TYPE": 0, "CLASSIFICATION_TYPE": "U", "NORAD_CAT_ID": 25994, "ELEMENT_SET_NO": 999, "REV_AT_EPOCH": 38428, "BSTAR": 0.00010839, "MEAN_MOTION_DOT": 4.86e-06, "MEAN_MOTION_DDOT": 0}, "tle": {"line1": "1 25994U 99068A   25359.75680666  .00000486  00000+0  10839-3 0  9990", "line2": "2 25994  97.9731  50.9624 0003409  68.5848  41.4376 14.60916058384288"}}, "geometry": {"type": "Point", "coordinates": [47.53232299513964, 24.20574015562948]}}, {"type": "Feature", "properties": {"norad_id": 27004, "name": "MAROC-TUBSAT", "group": "resource", "lat": 30.45384681015525, "lon": 162.79478012458645, "alt_km": 1010.7117801508339, "timestamp": "2025-12-25T22:42:16.652830+00:00", "meta": {"OBJECT_NAME": "MAROC-TUBSAT", "OBJECT_ID": "2001-056D", "EPOCH": "2025-12-25T10:32:57.324768", "MEAN_MOTION": 13.70253508, "ECCENTRICITY": 0.0019286, "INCLINATION": 99.7917, "RA_OF_ASC_NODE": 168.1071, "ARG_OF_PERICENTER": 226.4654, "MEAN_ANOMALY": 187.434, "EPHEMERIS_TYPE": 0, "CLASSIFICATION_TYPE": "U", "NORAD_CAT_ID": 27004, "ELEMENT_SET_NO": 999, "REV_AT_EPOCH": 20239, "BSTAR": 2.8305e-05, "MEAN_MOTION_DOT": -2.2e-07, "MEAN_MOTION_DDOT": 0}, "tle": {"line1": "1 27004U 01056D   25359.43955237 -.00000022  00000+0  28305-4 0  9993", "line2": "2 27004  99.7917 168.1071 0019286 226.4654 187.4340 13.70253508202393"}}, "geometry": {"type": "Point", "coordinates": [162.79478012458645, 30.45384681015525]}}, {"type": "Feature", "properties": {"norad_id": 27424, "name": "AQUA", "group": "resource", "lat": -56.19499714261296, "lon": -26.200916308092857, "alt_km": 695.7141282399671, "timestamp": "2025-12-25T22:42:16.652841+00:00", "meta": {"OBJECT_NAME": "AQUA", "OBJECT_ID": "2002-022A", "EPOCH": "2025-12-24T19:18:33.414624", "MEAN_MOTION": 14.61757572, "ECCENTRICITY": 0.00018094, "INCLINATION": 98.4055, "RA_OF_ASC_NODE": 319.881, "ARG_OF_PERICENTER": 102.1365, "MEAN_ANOMALY": 317.5475, "EPHEMERIS_TYPE": 0, "CLASSIFICATION_TYPE": "U", "NORAD_CAT_ID": 27424, "ELEMENT_SET_NO": 999, "REV_AT_EPOCH": 25779, "BSTAR": 0.00019560508, "MEAN_MOTION_DOT": 9.26e-06, "MEAN_MOTION_DDOT": 0}, "tle": {"line1": "1 27424U 02022A   25358.80455341  .00000926  00000+0  19561-3 0  9999", "line2": "2 27424  98.4055 319.8810 0001809 102.1365 317.5475 14.61757572257795"}}, "geometry": {"type": "Point", "coordinates": [-26.200916308092857, -56.19499714261296]}}, {"type": "Feature", "properties": {"norad_id": 28051, "name": "IRS-P6 (RESOURCESAT-1)", "group": "resource", "lat": 24.388646222639846, "lon": 35.98377328245447, "alt_km": 791.2872124228343, "timestamp": "2025-12-25T22:42:16.652852+00:00", "meta": {"OBJECT_NAME": "IRS-P6 (RESOURCESAT-1)", "OBJECT_ID": "2003-046A", "EPOCH": "2025-12-25T18:07:48.713088", "MEAN_MOTION": 14.36080029, "ECCENTRICITY": 0.0064919, "INCLINATION": 98.2158, "RA_OF_ASC_NODE": 39.5578, "ARG_OF_PERICENTER": 141.8287, "MEAN_ANOMALY": 338.7852, "EPHEMERIS_TYPE": 0, "CLASSIFICATION_TYPE": "U", "NORAD_CAT_ID": 28051, "ELEMENT_SET_NO": 999, "REV_AT_EPOCH": 15563, "BSTAR": 5.0273e-05, "MEAN_MOTION_DOT": 1.09e-06, "MEAN_MOTION_DDOT": 0}, "tle": {"line1": "1 28051U 03046A   25359.75542492  .00000109  00000+0  50273-4 0  9991", "line2": "2 28051  98.2158  39.5578 0064919 141.8287 338.7852 14.36080029155637"}}, "geometry": {"type": "Point", "coordinates": [35.98377328245447, 24.388646222639846]}}, {"type": "Feature", "properties": {"norad_id": 28220, "name": "SHIYAN-1 (SY-1)", "group": "resource", "lat": -42.094910603719846, "lon": 69.46336884647137, "alt_km": 484.6392686050831, "timestamp": "2025-12-25T22:42:16.652863+00:00", "meta": {"OBJECT_NAME": "SHIYAN-1 (SY-1)", "OBJECT_ID": "2004-012A", "EPOCH": "2025-12-25T18:10:37.216416", "MEAN_MOTION": 15.2847773, "ECCENTRICITY": 0.0005145, "INCLINATION": 97.8913, "RA_OF_ASC_NODE": 62.0651, "ARG_OF_PERICENTER": 270.3506, "MEAN_ANOMALY": 89.7142, "EPHEMERIS_TYPE": 0, "CLASSIFICATION_TYPE": "U", "NORAD_CAT_ID": 28220, "ELEMENT_SET_NO": 999, "REV_AT_EPOCH": 18455, "BSTAR": 0.00048278, "MEAN_MOTION_DOT": 0.00013314, "MEAN_MOTION_DDOT": 0}, "tle": {"line1": "1 28220U 04012A   25359.75737519  .00013314  00000+0  48278-3 0  9992", "line2": "2 28220  97.8913  62.0651 0005145 270.3506  89.7142 15.28477730184559"}}, "geometry": {"type": "Point", "coordinates": [69.46336884647137, -42.094910603719846]}}, {"type": "Feature", "properties": {"norad_id": 28376, "name": "AURA", "group": "resource", "lat": 33.320640644868604, "lon": -55.2852691443222, "alt_km": 687.3936969233064, "timestamp": "2025-12-25T22:42:16.652873+00:00", "meta": {"OBJECT_NAME": "AURA", "OBJECT_ID": "2004-026A", "EPOCH": "2025-12-25T17:37:10.750944", "MEAN_MOTION": 14.60975727, "ECCENTRICITY": 0.0001433, "INCLINATION": 98.3203, "RA_OF_ASC_NODE": 310.0225, "ARG_OF_PERICENTER": 90.6106, "MEAN_ANOMALY": 269.5259, "EPHEMERIS_TYPE": 0, "CLASSIFICATION_TYPE": "U", "NORAD_CAT_ID": 28376, "ELEMENT_SET_NO": 999, "REV_AT_EPOCH": 14088, "BSTAR": 0.00024036, "MEAN_MOTION_DOT": 1.13e-05, "MEAN_MOTION_DDOT": 0}, "tle": {"line1": "1 28376U 04026A   25359.73415221  .00001130  00000+0  24036-3 0  9999", "line2": "2 28376  98.3203 310.0225 0001433  90.6106 269.5259 14.60975727140886"}}, "geometry": {"type": "Point", "coordinates": [-55.2852691443222, 33.320640644868604]}}]}